TOKI                    
1 42820U 98067MU  18047.81302363  .00015846  00000-0  17816-3 0  9992
2 42820  51.6348 251.1048 0002969  84.0948 276.0384 15.62776066 35021
MAZAALAI (NUMSAT-1)     
1 42822U 98067MW  18047.82933383  .00016505  00000-0  18657-3 0  9994
2 42822  51.6351 251.2163 0003028  88.9635 271.1706 15.62601007 35003
BRAC ONNESHA            
1 42823U 98067MX  18048.53389856  .00017638  00000-0  19841-3 0  9998
2 42823  51.6356 247.6813 0005887 105.3874 254.7771 15.62660112 35094
NIGERIAEDUSAT-1         
1 42824U 98067MY  18047.77854712  .00016007  00000-0  18170-3 0  9995
2 42824  51.6363 251.6457 0005816 103.9021 256.2620 15.62508735 34992
SILU-1 (SILKROAD 1)     
1 42903U 17021F   18048.23174034  .00017180  00000-0  16386-3 0  9998
2 42903  42.7811 331.9919 0009529 186.5825 298.7858 15.66414551 31085
MIRATA                  
1 43015U 17073C   18047.84996388  .00001710  00000-0  14179-3 0  9990
2 43015  97.6972 344.0046 0258180 303.4727  54.2045 14.77812853 13365
ASTERIA                 
1 43020U 98067NH  18048.19232575  .00009569  00000-0  13885-3 0  9991
2 43020  51.6387 255.9208 0002940  88.8423 271.2905 15.56555637 13783
DELLINGR (RBLE)         
1 43021U 98067NJ  18047.82795688  .00005749  00000-0  88386-4 0  9995
2 43021  51.6383 257.9846 0002754  88.4879 271.6427 15.55855515 13728
TECHEDSAT 6             
1 43026U 98067NK  18048.53314792  .00072083  00000-0  72669-3 0  9993
2 43026  51.6348 251.4335 0003400 173.9480 186.1556 15.64714131 13779
OSIRIS-3U               
1 43027U 98067NL  18048.13534048  .00022007  00000-0  29053-3 0  9998
2 43027  51.6372 255.5377 0003256  78.7663 281.3695 15.58296364 13668
AEROCUBE 7B             
1 43042U 17071F   18047.81816127  .00003238  00000-0  95599-4 0  9990
2 43042  51.6384 267.5586 0005474 182.6065 177.4891 15.38001996 11077
AEROCUBE 7C             
1 43043U 17071G   18047.81780080  .00003022  00000-0  89905-4 0  9994
2 43043  51.6385 267.5569 0005432 182.4023 177.6936 15.38009392 11043
CHEFSAT                 
1 43044U 17071H   18047.81005836  .00005478  00000-0  15281-3 0  9996
2 43044  51.6384 267.5079 0005486 178.4925 181.6077 15.38345481 11047
ASGARDIA 1              
1 43049U 17071N   18047.87486815  .00003100  00000-0  91468-4 0  9999
2 43049  51.6386 267.1903 0002617 194.0601 166.0310 15.38171069 11040
ISARA                   
1 43050U 17071P   18048.19581855  .00005208  00000-0  14576-3 0  9992
2 43050  51.6385 265.5863 0002690 190.0613 170.0318 15.38350807 11095
FAUNA                   
1 43052U 17071R   18047.87184952  .00003242  00000-0  94948-4 0  9993
2 43052  51.6388 267.1730 0002597 189.2719 170.8218 15.38251482 11045
MICROMAS-2A             
1 43132U 18004X   18047.83333346  .00001335  00000-0  61052-4 0  9999
2 43132  97.5503 110.1154 0010876 152.1712 208.0108 15.22288478  5403
